{
  "type": "FeatureCollection",
  "features": [
    {
      "type": "Feature",
      "properties": {
        "norad_id": 66795,
        "name": "STARLINK-36047",
        "group": "last-30-days",
        "lat": 36.62231764723612,
        "lon": -51.89418572989507,
        "alt_km": 302.645570079103,
        "timestamp": "2025-12-12T05:47:27.526924+00:00",
        "meta_object_name": "STARLINK-36047",
        "meta_object_id": "2025-278E",
        "meta_epoch": "2025-12-11T20:00:01.999872",
        "meta_mean_motion": 15.89318604,
        "meta_eccentricity": 0.00018029,
        "meta_inclination": 42.9976,
        "meta_ra_of_asc_node": 257.7196,
        "meta_arg_of_pericenter": 256.6557,
        "meta_mean_anomaly": 348.3131,
        "meta_ephemeris_type": 0,
        "meta_classification_type": "U",
        "meta_norad_cat_id": 66795,
        "meta_element_set_no": 999,
        "meta_rev_at_epoch": 271,
        "meta_bstar": -0.0044695074,
        "meta_mean_motion_dot": -0.0117652,
        "meta_mean_motion_ddot": 0,
        "tle_line1": "1 66795U 25278E   25345.83335648 -.01176520  00000+0 -44695-2 0  9999",
        "tle_line2": "2 66795  42.9976 257.7196 0001802 256.6557 348.3131 15.89318604  2714"
      },
      "geometry": {
        "type": "Point",
        "coordinates": [
          -51.89418572989507,
          36.62231764723612
        ]
      }
    },
    {
      "type": "Feature",
      "properties": {
        "norad_id": 66796,
        "name": "STARLINK-35964",
        "group": "last-30-days",
        "lat": -6.412237123088974,
        "lon": -112.47199562035641,
        "alt_km": 269.0286354208474,
        "timestamp": "2025-12-12T05:47:27.526934+00:00",
        "meta_object_name": "STARLINK-35964",
        "meta_object_id": "2025-278F",
        "meta_epoch": "2025-12-11T20:00:01.999872",
        "meta_mean_motion": 16.03474761,
        "meta_eccentricity": 0.00016795,
        "meta_inclination": 42.9954,
        "meta_ra_of_asc_node": 257.0351,
        "meta_arg_of_pericenter": 256.1584,
        "meta_mean_anomaly": 257.6687,
        "meta_ephemeris_type": 0,
        "meta_classification_type": "U",
        "meta_norad_cat_id": 66796,
        "meta_element_set_no": 999,
        "meta_rev_at_epoch": 265,
        "meta_bstar": -0.0024820412,
        "meta_mean_motion_dot": -0.01614014,
        "meta_mean_motion_ddot": 0.00081954453,
        "tle_line1": "1 66796U 25278F   25345.83335648 -.01614014  81954-3 -24820-2 0  9994",
        "tle_line2": "2 66796  42.9954 257.0351 0001679 256.1584 257.6687 16.03474761  2659"
      },
      "geometry": {
        "type": "Point",
        "coordinates": [
          -112.47199562035641,
          -6.412237123088974
        ]
      }
    },
    {
      "type": "Feature",
      "properties": {
        "norad_id": 66797,
        "name": "STARLINK-36099",
        "group": "last-30-days",
        "lat": 38.716775586453785,
        "lon": -45.464432072061264,
        "alt_km": 302.3085525597435,
        "timestamp": "2025-12-12T05:47:27.526945+00:00",
        "meta_object_name": "STARLINK-36099",
        "meta_object_id": "2025-278G",
        "meta_epoch": "2025-12-11T20:00:01.999872",
        "meta_mean_motion": 15.89362263,
        "meta_eccentricity": 0.00018324,
        "meta_inclination": 42.9976,
        "meta_ra_of_asc_node": 257.7058,
        "meta_arg_of_pericenter": 256.3911,
        "meta_mean_anomaly": 354.036,
        "meta_ephemeris_type": 0,
        "meta_classification_type": "U",
        "meta_norad_cat_id": 66797,
        "meta_element_set_no": 999,
        "meta_rev_at_epoch": 287,
        "meta_bstar": -0.0045482068,
        "meta_mean_motion_dot": -0.01220212,
        "meta_mean_motion_ddot": 0,
        "tle_line1": "1 66797U 25278G   25345.83335648 -.01220212  00000+0 -45482-2 0  9994",
        "tle_line2": "2 66797  42.9976 257.7058 0001832 256.3911 354.0360 15.89362263  2872"
      },
      "geometry": {
        "type": "Point",
        "coordinates": [
          -45.464432072061264,
          38.716775586453785
        ]
      }
    },
    {
      "type": "Feature",
      "properties": {
        "norad_id": 66798,
        "name": "STARLINK-36041",
        "group": "last-30-days",
        "lat": 39.40198672052154,
        "lon": -42.98496751525627,
        "alt_km": 302.1176553820778,
        "timestamp": "2025-12-12T05:47:27.526956+00:00",
        "meta_object_name": "STARLINK-36041",
        "meta_object_id": "2025-278H",
        "meta_epoch": "2025-12-11T20:00:01.999872",
        "meta_mean_motion": 15.89388673,
        "meta_eccentricity": 0.00018023,
        "meta_inclination": 42.9976,
        "meta_ra_of_asc_node": 257.7006,
        "meta_arg_of_pericenter": 257.1582,
        "meta_mean_anomaly": 355.2766,
        "meta_ephemeris_type": 0,
        "meta_classification_type": "U",
        "meta_norad_cat_id": 66798,
        "meta_element_set_no": 999,
        "meta_rev_at_epoch": 265,
        "meta_bstar": -0.0045501463,
        "meta_mean_motion_dot": -0.01222127,
        "meta_mean_motion_ddot": 0,
        "tle_line1": "1 66798U 25278H   25345.83335648 -.01222127  00000+0 -45501-2 0  9994",
        "tle_line2": "2 66798  42.9976 257.7006 0001802 257.1582 355.2766 15.89388673  2658"
      },
      "geometry": {
        "type": "Point",
        "coordinates": [
          -42.98496751525627,
          39.40198672052154
        ]
      }
    },
    {
      "type": "Feature",
      "properties": {
        "norad_id": 66799,
        "name": "STARLINK-36044",
        "group": "last-30-days",
        "lat": 40.10719951833056,
        "lon": -40.143716940614475,
        "alt_km": 301.9752515821583,
        "timestamp": "2025-12-12T05:47:27.526967+00:00",
        "meta_object_name": "STARLINK-36044",
        "meta_object_id": "2025-278J",
        "meta_epoch": "2025-12-11T20:00:01.999872",
        "meta_mean_motion": 15.89412174,
        "meta_eccentricity": 0.00018165,
        "meta_inclination": 42.9976,
        "meta_ra_of_asc_node": 257.695,
        "meta_arg_of_pericenter": 257.5343,
        "meta_mean_anomaly": 357.1671,
        "meta_ephemeris_type": 0,
        "meta_classification_type": "U",
        "meta_norad_cat_id": 66799,
        "meta_element_set_no": 999,
        "meta_rev_at_epoch": 281,
        "meta_bstar": -0.0045687423,
        "meta_mean_motion_dot": -0.01227899,
        "meta_mean_motion_ddot": 0,
        "tle_line1": "1 66799U 25278J   25345.83335648 -.01227899  00000+0 -45687-2 0  9991",
        "tle_line2": "2 66799  42.9976 257.6950 0001816 257.5343 357.1671 15.89412174  2818"
      },
      "geometry": {
        "type": "Point",
        "coordinates": [
          -40.143716940614475,
          40.10719951833056
        ]
      }
    },
    {
      "type": "Feature",
      "properties": {
        "norad_id": 66800,
        "name": "STARLINK-35996",
        "group": "last-30-days",
        "lat": 41.29723926612451,
        "lon": -34.31853662163899,
        "alt_km": 301.7115145155367,
        "timestamp": "2025-12-12T05:47:27.526977+00:00",
        "meta_object_name": "STARLINK-35996",
        "meta_object_id": "2025-278K",
        "meta_epoch": "2025-12-11T20:00:01.999872",
        "meta_mean_motion": 15.89464491,
        "meta_eccentricity": 0.00018449,
        "meta_inclination": 42.9975,
        "meta_ra_of_asc_node": 257.6834,
        "meta_arg_of_pericenter": 258.9841,
        "meta_mean_anomaly": 0.2264,
        "meta_ephemeris_type": 0,
        "meta_classification_type": "U",
        "meta_norad_cat_id": 66800,
        "meta_element_set_no": 999,
        "meta_rev_at_epoch": 260,
        "meta_bstar": -0.0046136736,
        "meta_mean_motion_dot": -0.01241614,
        "meta_mean_motion_ddot": 0,
        "tle_line1": "1 66800U 25278K   25345.83335648 -.01241614  00000+0 -46137-2 0  9996",
        "tle_line2": "2 66800  42.9975 257.6834 0001844 258.9841   0.2264 15.89464491  2600"
      },
      "geometry": {
        "type": "Point",
        "coordinates": [
          -34.31853662163899,
          41.29723926612451
        ]
      }
    },
    {
      "type": "Feature",
      "properties": {
        "norad_id": 66801,
        "name": "STARLINK-36080",
        "group": "last-30-days",
        "lat": 42.89940635721138,
        "lon": -19.071328218010795,
        "alt_km": 301.1901247698743,
        "timestamp": "2025-12-12T05:47:27.526986+00:00",
        "meta_object_name": "STARLINK-36080",
        "meta_object_id": "2025-278L",
        "meta_epoch": "2025-12-11T20:00:01.999872",
        "meta_mean_motion": 15.89588118,
        "meta_eccentricity": 0.00018594,
        "meta_inclination": 42.9973,
        "meta_ra_of_asc_node": 257.6543,
        "meta_arg_of_pericenter": 257.4929,
        "meta_mean_anomaly": 12.9732,
        "meta_ephemeris_type": 0,
        "meta_classification_type": "U",
        "meta_norad_cat_id": 66801,
        "meta_element_set_no": 999,
        "meta_rev_at_epoch": 281,
        "meta_bstar": -0.0046779738,
        "meta_mean_motion_dot": -0.01264074,
        "meta_mean_motion_ddot": 0,
        "tle_line1": "1 66801U 25278L   25345.83335648 -.01264074  00000+0 -46780-2 0  9996",
        "tle_line2": "2 66801  42.9973 257.6543 0001859 257.4929  12.9732 15.89588118  2819"
      },
      "geometry": {
        "type": "Point",
        "coordinates": [
          -19.071328218010795,
          42.89940635721138
        ]
      }
    }
  ]
}